start=new Date('2022-06-06T00:00:00.000Z').valueOf();
sats=[{"INCLINATION":"53.2174","TLE_LINE2":"2 52265  53.2174 154.2212 0001623  37.0124  20.6756 15.41108594  1308","MEAN_MOTION":"15.41108594","TLE_LINE1":"1 52265U 22041E   22156.91667824 -.00718005  00000-0 -18481-1 0  9994","MEAN_ELEMENT_THEORY":"SGP4","DECAY_DATE":null,"LAUNCH_DATE":"2022-04-21","REF_FRAME":"TEME","PERIOD":"93.439","MEAN_MOTION_DDOT":"0.0000000000000","REV_AT_EPOCH":"130","FILE":"3482995","RCS_SIZE":"LARGE","EPHEMERIS_TYPE":"0","MEAN_MOTION_DOT":"-0.00718005","NORAD_CAT_ID":"52265","BSTAR":"-0.01848100000000","OBJECT_ID":"2022-041E","PERIAPSIS":"441.731","MEAN_ANOMALY":"20.6756","SEMIMAJOR_AXIS":"6820.973","EPOCH":"2022-06-05T22:00:00.999936","ELEMENT_SET_NO":"999","GP_ID":"205449087","ECCENTRICITY":"0.00016230","APOAPSIS":"443.945","SITE":"AFETR","TIME_SYSTEM":"UTC","CLASSIFICATION_TYPE":"U","OBJECT_NAME":"STARLINK-3740","RA_OF_ASC_NODE":"154.2212","OBJECT_TYPE":"PAYLOAD","COUNTRY_CODE":"US","CENTER_NAME":"EARTH","ARG_OF_PERICENTER":"37.0124"},{"REF_FRAME":"TEME","LAUNCH_DATE":"2022-04-21","PERIOD":"93.427","MEAN_MOTION_DDOT":"0.0000000000000","REV_AT_EPOCH":"830","RCS_SIZE":"LARGE","FILE":"3482695","TLE_LINE2":"2 52266  53.2174 154.2316 0001642  36.1185  26.4631 15.41306834  8302","INCLINATION":"53.2174","MEAN_ELEMENT_THEORY":"SGP4","MEAN_MOTION":"15.41306834","TLE_LINE1":"1 52266U 22041F   22156.91667824 -.00718014  00000-0 -18359-1 0  9999","DECAY_DATE":null,"OBJECT_ID":"2022-041F","PERIAPSIS":"441.133","MEAN_ANOMALY":"26.4631","SEMIMAJOR_AXIS":"6820.388","EPHEMERIS_TYPE":"0","MEAN_MOTION_DOT":"-0.00718014","BSTAR":"-0.01835900000000","NORAD_CAT_ID":"52266","ELEMENT_SET_NO":"999","GP_ID":"205416984","ECCENTRICITY":"0.00016420","APOAPSIS":"443.373","EPOCH":"2022-06-05T22:00:00.999936","COUNTRY_CODE":"US","CENTER_NAME":"EARTH","ARG_OF_PERICENTER":"36.1185","SITE":"AFETR","TIME_SYSTEM":"UTC","CLASSIFICATION_TYPE":"U","RA_OF_ASC_NODE":"154.2316","OBJECT_TYPE":"PAYLOAD","OBJECT_NAME":"STARLINK-3739"},{"NORAD_CAT_ID":"52267","BSTAR":"-0.01824600000000","MEAN_MOTION_DOT":"-0.00718319","EPHEMERIS_TYPE":"0","SEMIMAJOR_AXIS":"6819.803","MEAN_ANOMALY":"29.1015","OBJECT_ID":"2022-041G","PERIAPSIS":"440.588","DECAY_DATE":null,"TLE_LINE1":"1 52267U 22041G   22156.91667824 -.00718319  00000-0 -18246-1 0  9993","MEAN_MOTION":"15.41505215","MEAN_ELEMENT_THEORY":"SGP4","INCLINATION":"53.2174","TLE_LINE2":"2 52267  53.2174 154.2425 0001584  38.2812  29.1015 15.41505215  8309","FILE":"3482695","RCS_SIZE":"LARGE","MEAN_MOTION_DDOT":"0.0000000000000","REV_AT_EPOCH":"830","PERIOD":"93.415","LAUNCH_DATE":"2022-04-21","REF_FRAME":"TEME","OBJECT_NAME":"STARLINK-3748","OBJECT_TYPE":"PAYLOAD","RA_OF_ASC_NODE":"154.2425","CLASSIFICATION_TYPE":"U","TIME_SYSTEM":"UTC","SITE":"AFETR","ARG_OF_PERICENTER":"38.2812","CENTER_NAME":"EARTH","COUNTRY_CODE":"US","EPOCH":"2022-06-05T22:00:00.999936","APOAPSIS":"442.748","ECCENTRICITY":"0.00015840","GP_ID":"205416483","ELEMENT_SET_NO":"999"},{"TIME_SYSTEM":"UTC","SITE":"AFETR","RA_OF_ASC_NODE":"154.2738","OBJECT_TYPE":"PAYLOAD","OBJECT_NAME":"STARLINK-3746","CLASSIFICATION_TYPE":"U","CENTER_NAME":"EARTH","COUNTRY_CODE":"US","ARG_OF_PERICENTER":"38.4327","EPOCH":"2022-06-05T22:00:00.999936","ELEMENT_SET_NO":"999","ECCENTRICITY":"0.00016180","APOAPSIS":"441.017","GP_ID":"205416477","BSTAR":"-0.01790600000000","NORAD_CAT_ID":"52268","EPHEMERIS_TYPE":"0","MEAN_MOTION_DOT":"-0.00719110","OBJECT_ID":"2022-041H","PERIAPSIS":"438.810","SEMIMAJOR_AXIS":"6818.049","MEAN_ANOMALY":"42.7986","TLE_LINE2":"2 52268  53.2174 154.2738 0001618  38.4327  42.7986 15.42100327  8302","INCLINATION":"53.2174","DECAY_DATE":null,"MEAN_ELEMENT_THEORY":"SGP4","TLE_LINE1":"1 52268U 22041H   22156.91667824 -.00719110  00000-0 -17906-1 0  9996","MEAN_MOTION":"15.42100327","PERIOD":"93.379","REF_FRAME":"TEME","LAUNCH_DATE":"2022-04-21","RCS_SIZE":"LARGE","FILE":"3482695","MEAN_MOTION_DDOT":"0.0000000000000","REV_AT_EPOCH":"830"},{"OBJECT_TYPE":"PAYLOAD","RA_OF_ASC_NODE":"154.2531","OBJECT_NAME":"STARLINK-3791","CLASSIFICATION_TYPE":"U","TIME_SYSTEM":"UTC","SITE":"AFETR","ARG_OF_PERICENTER":"30.0061","CENTER_NAME":"EARTH","COUNTRY_CODE":"US","EPOCH":"2022-06-05T22:00:00.999936","ECCENTRICITY":"0.00018660","APOAPSIS":"442.356","GP_ID":"205416978","ELEMENT_SET_NO":"999","BSTAR":"-0.01813200000000","NORAD_CAT_ID":"52269","MEAN_MOTION_DOT":"-0.00718619","EPHEMERIS_TYPE":"0","SEMIMAJOR_AXIS":"6819.218","MEAN_ANOMALY":"42.0853","PERIAPSIS":"439.811","OBJECT_ID":"2022-041J","DECAY_DATE":null,"MEAN_ELEMENT_THEORY":"SGP4","MEAN_MOTION":"15.41703574","TLE_LINE1":"1 52269U 22041J   22156.91667824 -.00718619  00000-0 -18132-1 0  9992","TLE_LINE2":"2 52269  53.2174 154.2531 0001866  30.0061  42.0853 15.41703574  8300","INCLINATION":"53.2174","RCS_SIZE":"LARGE","FILE":"3482695","REV_AT_EPOCH":"830","MEAN_MOTION_DDOT":"0.0000000000000","PERIOD":"93.403","REF_FRAME":"TEME","LAUNCH_DATE":"2022-04-21"},{"OBJECT_ID":"2022-041K","PERIAPSIS":"438.386","SEMIMAJOR_AXIS":"6817.634","MEAN_ANOMALY":"46.7023","BSTAR":"-0.01782300000000","NORAD_CAT_ID":"52270","MEAN_MOTION_DOT":"-0.00719171","EPHEMERIS_TYPE":"0","PERIOD":"93.371","REF_FRAME":"TEME","LAUNCH_DATE":"2022-04-21","RCS_SIZE":"LARGE","FILE":"3482671","REV_AT_EPOCH":"829","MEAN_MOTION_DDOT":"0.0000000000000","TLE_LINE2":"2 52270  53.2174 154.2805 0001633  38.3047  46.7023 15.42240875  8292","INCLINATION":"53.2174","DECAY_DATE":null,"MEAN_ELEMENT_THEORY":"SGP4","TLE_LINE1":"1 52270U 22041K   22156.91667824 -.00719171  00000-0 -17823-1 0  9994","MEAN_MOTION":"15.42240875","CENTER_NAME":"EARTH","COUNTRY_CODE":"US","ARG_OF_PERICENTER":"38.3047","TIME_SYSTEM":"UTC","SITE":"AFETR","OBJECT_TYPE":"PAYLOAD","RA_OF_ASC_NODE":"154.2805","OBJECT_NAME":"STARLINK-3804","CLASSIFICATION_TYPE":"U","ELEMENT_SET_NO":"999","ECCENTRICITY":"0.00016330","APOAPSIS":"440.613","GP_ID":"205416507","EPOCH":"2022-06-05T22:00:00.999936"},{"ELEMENT_SET_NO":"999","ECCENTRICITY":"0.00015970","APOAPSIS":"441.587","GP_ID":"205416550","EPOCH":"2022-06-05T22:00:00.999936","CENTER_NAME":"EARTH","COUNTRY_CODE":"US","ARG_OF_PERICENTER":"38.8678","TIME_SYSTEM":"UTC","SITE":"AFETR","OBJECT_NAME":"STARLINK-3788","RA_OF_ASC_NODE":"154.2636","OBJECT_TYPE":"PAYLOAD","CLASSIFICATION_TYPE":"U","PERIOD":"93.391","LAUNCH_DATE":"2022-04-21","REF_FRAME":"TEME","FILE":"3482699","RCS_SIZE":"LARGE","MEAN_MOTION_DDOT":"0.0000000000000","REV_AT_EPOCH":"830","INCLINATION":"53.2174","TLE_LINE2":"2 52271  53.2174 154.2636 0001597  38.8678  37.8397 15.41901948  8300","DECAY_DATE":null,"TLE_LINE1":"1 52271U 22041L   22156.91667824 -.00718779  00000-0 -18017-1 0  9994","MEAN_MOTION":"15.41901948","MEAN_ELEMENT_THEORY":"SGP4","OBJECT_ID":"2022-041L","PERIAPSIS":"439.409","SEMIMAJOR_AXIS":"6818.633","MEAN_ANOMALY":"37.8397","NORAD_CAT_ID":"52271","BSTAR":"-0.01801700000000","MEAN_MOTION_DOT":"-0.00718779","EPHEMERIS_TYPE":"0"},{"INCLINATION":"53.2174","TLE_LINE2":"2 52272  53.2174 154.2895 0001733  34.9604  55.1022 15.42430541  8301","DECAY_DATE":null,"MEAN_MOTION":"15.42430541","TLE_LINE1":"1 52272U 22041M   22156.91667824 -.00719472  00000-0 -17717-1 0  9992","MEAN_ELEMENT_THEORY":"SGP4","PERIOD":"93.359","LAUNCH_DATE":"2022-04-21","REF_FRAME":"TEME","FILE":"3482673","RCS_SIZE":"LARGE","REV_AT_EPOCH":"830","MEAN_MOTION_DDOT":"0.0000000000000","NORAD_CAT_ID":"52272","BSTAR":"-0.01771700000000","MEAN_MOTION_DOT":"-0.00719472","EPHEMERIS_TYPE":"0","OBJECT_ID":"2022-041M","PERIAPSIS":"437.759","SEMIMAJOR_AXIS":"6817.075","MEAN_ANOMALY":"55.1022","EPOCH":"2022-06-05T22:00:00.999936","ELEMENT_SET_NO":"999","ECCENTRICITY":"0.00017330","APOAPSIS":"440.122","GP_ID":"205416530","TIME_SYSTEM":"UTC","SITE":"AFETR","OBJECT_NAME":"STARLINK-3781","RA_OF_ASC_NODE":"154.2895","OBJECT_TYPE":"PAYLOAD","CLASSIFICATION_TYPE":"U","CENTER_NAME":"EARTH","COUNTRY_CODE":"US","ARG_OF_PERICENTER":"34.9604"},{"DECAY_DATE":null,"MEAN_ELEMENT_THEORY":"SGP4","TLE_LINE1":"1 52273U 22041N   22156.91667824 -.00703309  00000-0 -60888-2 0  9993","MEAN_MOTION":"15.70535670","TLE_LINE2":"2 52273  53.2172 150.9979 0003458 330.2820 299.1168 15.70535670  8350","INCLINATION":"53.2172","RCS_SIZE":"LARGE","FILE":"3482699","MEAN_MOTION_DDOT":"0.0000000000000","REV_AT_EPOCH":"835","PERIOD":"91.688","REF_FRAME":"TEME","LAUNCH_DATE":"2022-04-21","BSTAR":"-0.00608880000000","NORAD_CAT_ID":"52273","MEAN_MOTION_DOT":"-0.00703309","EPHEMERIS_TYPE":"0","SEMIMAJOR_AXIS":"6735.502","MEAN_ANOMALY":"299.1168","PERIAPSIS":"355.038","OBJECT_ID":"2022-041N","EPOCH":"2022-06-05T22:00:00.999936","ECCENTRICITY":"0.00034580","APOAPSIS":"359.696","GP_ID":"205416554","ELEMENT_SET_NO":"999","RA_OF_ASC_NODE":"150.9979","OBJECT_TYPE":"PAYLOAD","OBJECT_NAME":"STARLINK-3782","CLASSIFICATION_TYPE":"U","TIME_SYSTEM":"UTC","SITE":"AFETR","ARG_OF_PERICENTER":"330.2820","CENTER_NAME":"EARTH","COUNTRY_CODE":"US"},{"INCLINATION":"53.2174","TLE_LINE2":"2 52274  53.2174 154.3000 0001652  37.6344  59.0113 15.42665259  8303","DECAY_DATE":null,"MEAN_MOTION":"15.42665259","TLE_LINE1":"1 52274U 22041P   22156.91667824 -.00719644  00000-0 -17582-1 0  9995","MEAN_ELEMENT_THEORY":"SGP4","PERIOD":"93.345","LAUNCH_DATE":"2022-04-21","REF_FRAME":"TEME","FILE":"3482673","RCS_SIZE":"LARGE","REV_AT_EPOCH":"830","MEAN_MOTION_DDOT":"0.0000000000000","NORAD_CAT_ID":"52274","BSTAR":"-0.01758200000000","MEAN_MOTION_DOT":"-0.00719644","EPHEMERIS_TYPE":"0","PERIAPSIS":"437.123","OBJECT_ID":"2022-041P","SEMIMAJOR_AXIS":"6816.384","MEAN_ANOMALY":"59.0113","EPOCH":"2022-06-05T22:00:00.999936","ELEMENT_SET_NO":"999","APOAPSIS":"439.375","ECCENTRICITY":"0.00016520","GP_ID":"205416524","TIME_SYSTEM":"UTC","SITE":"AFETR","OBJECT_NAME":"STARLINK-3790","RA_OF_ASC_NODE":"154.3000","OBJECT_TYPE":"PAYLOAD","CLASSIFICATION_TYPE":"U","CENTER_NAME":"EARTH","COUNTRY_CODE":"US","ARG_OF_PERICENTER":"37.6344"}];
